{"type": "FeatureCollection", "features": [ {"type": "Feature", "properties": {"norad_id": 32440, "name": "FENGYUN 1C DEB", "group": "fengyun-1c-debris", "lat": -71.07939961331525, "lon": -135.399409205522, "alt_km": 1276.6643206335184, "timestamp": "2025-12-06T22:38:43.014649+00:00", "meta": {"OBJECT_NAME": "FENGYUN 1C DEB", "OBJECT_ID": "1999-025DBC", "EPOCH": "2025-12-05T08:12:44.739072", "MEAN_MOTION": 13.61195229, "ECCENTRICITY": 0.03213757, "INCLINATION": 99.1546, "RA_OF_ASC_NODE": 195.0359, "ARG_OF_PERICENTER": 110.0631, "MEAN_ANOMALY": 253.5405, "EPHEMERIS_TYPE": 0, "CLASSIFICATION_TYPE": "U", "NORAD_CAT_ID": 32440, "ELEMENT_SET_NO": 999, "REV_AT_EPOCH": 60185, "BSTAR": 0.0046022853, "MEAN_MOTION_DOT": 4.901e-05, "MEAN_MOTION_DDOT": 0}, "tle": {"line1": "1 32440U 99025DBC 25339.34218448  .00004901  00000+0  46023-2 0  9994", "line2": "2 32440  99.1546 195.0359 0321375 110.0631 253.5405 13.61195229601857"}}, "geometry": {"type": "Point", "coordinates": [-135.399409205522, -71.07939961331525]}}, {"type": "Feature", "properties": {"norad_id": 32447, "name": "FENGYUN 1C DEB", "group": "fengyun-1c-debris", "lat": 10.944296966050723, "lon": 178.99010780052822, "alt_km": 930.1915368625205, "timestamp": "2025-12-06T22:38:43.014659+00:00", "meta": {"OBJECT_NAME": "FENGYUN 1C DEB", "OBJECT_ID": "1999-025DBK", "EPOCH": "2025-12-04T19:57:48.676032", "MEAN_MOTION": 13.96007618, "ECCENTRICITY": 0.00801771, "INCLINATION": 98.9313, "RA_OF_ASC_NODE": 355.1998, "ARG_OF_PERICENTER": 62.9072, "MEAN_ANOMALY": 298.0242, "EPHEMERIS_TYPE": 0, "CLASSIFICATION_TYPE": "U", "NORAD_CAT_ID": 32447, "ELEMENT_SET_NO": 999, "REV_AT_EPOCH": 67768, "BSTAR": 0.00045058659, "MEAN_MOTION_DOT": 5.92e-06, "MEAN_MOTION_DDOT": 0}, "tle": {"line1": "1 32447U 99025DBK 25338.83181338  .00000592  00000+0  45059-3 0  9992", "line2": "2 32447  98.9313 355.1998 0080177  62.9072 298.0242 13.96007618677686"}}, "geometry": {"type": "Point", "coordinates": [178.99010780052822, 10.944296966050723]}}, {"type": "Feature", "properties": {"norad_id": 32451, "name": "FENGYUN 1C DEB", "group": "fengyun-1c-debris", "lat": 28.74607279224758, "lon": -45.19339378354338, "alt_km": 1075.3330113788506, "timestamp": "2025-12-06T22:38:43.014669+00:00", "meta": {"OBJECT_NAME": "FENGYUN 1C DEB", "OBJECT_ID": "1999-025DBP", "EPOCH": "2025-12-04T18:32:35.107584", "MEAN_MOTION": 13.86510198, "ECCENTRICITY": 0.01858286, "INCLINATION": 99.9695, "RA_OF_ASC_NODE": 318.0312, "ARG_OF_PERICENTER": 215.954, "MEAN_ANOMALY": 142.8994, "EPHEMERIS_TYPE": 0, "CLASSIFICATION_TYPE": "U", "NORAD_CAT_ID": 32451, "ELEMENT_SET_NO": 999, "REV_AT_EPOCH": 61654, "BSTAR": 0.0037745112, "MEAN_MOTION_DOT": 4.97e-05, "MEAN_MOTION_DDOT": 0}, "tle": {"line1": "1 32451U 99025DBP 25338.77262856  .00004970  00000+0  37745-2 0  9991", "line2": "2 32451  99.9695 318.0312 0185828 215.9540 142.8994 13.86510198616541"}}, "geometry": {"type": "Point", "coordinates": [-45.19339378354338, 28.74607279224758]}}, {"type": "Feature", "properties": {"norad_id": 32453, "name": "FENGYUN 1C DEB", "group": "fengyun-1c-debris", "lat": -20.066402768699334, "lon": -106.05943064087138, "alt_km": 922.8376395511641, "timestamp": "2025-12-06T22:38:43.014679+00:00", "meta": {"OBJECT_NAME": "FENGYUN 1C DEB", "OBJECT_ID": "1999-025DBR", "EPOCH": "2025-11-28T10:57:12.038976", "MEAN_MOTION": 14.02200263, "ECCENTRICITY": 0.00971069, "INCLINATION": 99.3715, "RA_OF_ASC_NODE": 241.7597, "ARG_OF_PERICENTER": 245.8452, "MEAN_ANOMALY": 113.2535, "EPHEMERIS_TYPE": 0, "CLASSIFICATION_TYPE": "U", "NORAD_CAT_ID": 32453, "ELEMENT_SET_NO": 999, "REV_AT_EPOCH": 93228, "BSTAR": 0.00096884375, "MEAN_MOTION_DOT": 1.498e-05, "MEAN_MOTION_DDOT": 0}, "tle": {"line1": "1 32453U 99025DBR 25332.45638934  .00001498  00000+0  96884-3 0  9998", "line2": "2 32453  99.3715 241.7597 0097106 245.8452 113.2535 14.02200263932285"}}, "geometry": {"type": "Point", "coordinates": [-106.05943064087138, -20.066402768699334]}}, {"type": "Feature", "properties": {"norad_id": 32455, "name": "FENGYUN 1C DEB", "group": "fengyun-1c-debris", "lat": -67.44194942585483, "lon": -38.49063475358044, "alt_km": 925.849898960345, "timestamp": "2025-12-06T22:38:43.014689+00:00", "meta": {"OBJECT_NAME": "FENGYUN 1C DEB", "OBJECT_ID": "1999-025DBT", "EPOCH": "2025-12-06T05:56:32.231328", "MEAN_MOTION": 13.92383849, "ECCENTRICITY": 0.02369242, "INCLINATION": 101.7323, "RA_OF_ASC_NODE": 170.6468, "ARG_OF_PERICENTER": 161.416, "MEAN_ANOMALY": 199.5827, "EPHEMERIS_TYPE": 0, "CLASSIFICATION_TYPE": "U", "NORAD_CAT_ID": 32455, "ELEMENT_SET_NO": 999, "REV_AT_EPOCH": 64325, "BSTAR": 0.005316876, "MEAN_MOTION_DOT": 8.549e-05, "MEAN_MOTION_DDOT": 0}, "tle": {"line1": "1 32455U 99025DBT 25340.24759527  .00008549  00000+0  53169-2 0  9990", "line2": "2 32455 101.7323 170.6468 0236924 161.4160 199.5827 13.92383849643256"}}, "geometry": {"type": "Point", "coordinates": [-38.49063475358044, -67.44194942585483]}}, {"type": "Feature", "properties": {"norad_id": 32456, "name": "FENGYUN 1C DEB", "group": "fengyun-1c-debris", "lat": -40.308652568419824, "lon": -72.5488987903594, "alt_km": 857.0250429585285, "timestamp": "2025-12-06T22:38:43.014699+00:00", "meta": {"OBJECT_NAME": "FENGYUN 1C DEB", "OBJECT_ID": "1999-025DBU", "EPOCH": "2025-11-28T15:45:38.634624", "MEAN_MOTION": 13.3556135, "ECCENTRICITY": 0.03790377, "INCLINATION": 103.6671, "RA_OF_ASC_NODE": 108.2999, "ARG_OF_PERICENTER": 253.9297, "MEAN_ANOMALY": 101.9772, "EPHEMERIS_TYPE": 0, "CLASSIFICATION_TYPE": "U", "NORAD_CAT_ID": 32456, "ELEMENT_SET_NO": 999, "REV_AT_EPOCH": 60428, "BSTAR": 0.0020707074, "MEAN_MOTION_DOT": 1.513e-05, "MEAN_MOTION_DDOT": 0}, "tle": {"line1": "1 32456U 99025DBU 25332.65669716  .00001513  00000+0  20707-2 0  9993", "line2": "2 32456 103.6671 108.2999 0379037 253.9297 101.9772 13.35561350604289"}}, "geometry": {"type": "Point", "coordinates": [-72.5488987903594, -40.308652568419824]}}, {"type": "Feature", "properties": {"norad_id": 32458, "name": "FENGYUN 1C DEB", "group": "fengyun-1c-debris", "lat": 42.02219811863776, "lon": -171.463274831169, "alt_km": 690.381863883742, "timestamp": "2025-12-06T22:38:43.014709+00:00", "meta": {"OBJECT_NAME": "FENGYUN 1C DEB", "OBJECT_ID": "1999-025DBW", "EPOCH": "2025-12-04T07:36:40.919328", "MEAN_MOTION": 14.62058524, "ECCENTRICITY": 0.004081, "INCLINATION": 99.0463, "RA_OF_ASC_NODE": 357.4098, "ARG_OF_PERICENTER": 39.6877, "MEAN_ANOMALY": 320.7295, "EPHEMERIS_TYPE": 0, "CLASSIFICATION_TYPE": "U", "NORAD_CAT_ID": 32458, "ELEMENT_SET_NO": 999, "REV_AT_EPOCH": 67666, "BSTAR": 0.0039607, "MEAN_MOTION_DOT": 0.00020121, "MEAN_MOTION_DDOT": 0}, "tle": {"line1": "1 32458U 99025DBW 25338.31714027  .00020121  00000+0  39607-2 0  9995", "line2": "2 32458  99.0463 357.4098 0040810  39.6877 320.7295 14.62058524676660"}}, "geometry": {"type": "Point", "coordinates": [-171.463274831169, 42.02219811863776]}}, {"type": "Feature", "properties": {"norad_id": 32459, "name": "FENGYUN 1C DEB", "group": "fengyun-1c-debris", "lat": -70.16021918693883, "lon": 151.4506589316686, "alt_km": 653.2415966462131, "timestamp": "2025-12-06T22:38:43.014719+00:00", "meta": {"OBJECT_NAME": "FENGYUN 1C DEB", "OBJECT_ID": "1999-025DBX", "EPOCH": "2025-12-06T06:30:16.713792", "MEAN_MOTION": 14.42765434, "ECCENTRICITY": 0.02129405, "INCLINATION": 98.3013, "RA_OF_ASC_NODE": 354.6648, "ARG_OF_PERICENTER": 205.9407, "MEAN_ANOMALY": 153.0988, "EPHEMERIS_TYPE": 0, "CLASSIFICATION_TYPE": "U", "NORAD_CAT_ID": 32459, "ELEMENT_SET_NO": 999, "REV_AT_EPOCH": 94457, "BSTAR": 0.0010678076, "MEAN_MOTION_DOT": 4.63e-05, "MEAN_MOTION_DDOT": 0}, "tle": {"line1": "1 32459U 99025DBX 25340.27102678  .00004630  00000+0  10678-2 0  9991", "line2": "2 32459  98.3013 354.6648 0212940 205.9407 153.0988 14.42765434944573"}}, "geometry": {"type": "Point", "coordinates": [151.4506589316686, -70.16021918693883]}}, {"type": "Feature", "properties": {"norad_id": 32460, "name": "FENGYUN 1C DEB", "group": "fengyun-1c-debris", "lat": -36.33626923011479, "lon": 132.86307047104665, "alt_km": 1071.706744811937, "timestamp": "2025-12-06T22:38:43.014729+00:00", "meta": {"OBJECT_NAME": "FENGYUN 1C DEB", "OBJECT_ID": "1999-025DBY", "EPOCH": "2025-12-05T15:43:13.910304", "MEAN_MOTION": 13.89535553, "ECCENTRICITY": 0.01852118, "INCLINATION": 98.0202, "RA_OF_ASC_NODE": 125.7992, "ARG_OF_PERICENTER": 144.0505, "MEAN_ANOMALY": 217.3283, "EPHEMERIS_TYPE": 0, "CLASSIFICATION_TYPE": "U", "NORAD_CAT_ID": 32460, "ELEMENT_SET_NO": 999, "REV_AT_EPOCH": 65155, "BSTAR": 0.0019996023, "MEAN_MOTION_DOT": 2.773e-05, "MEAN_MOTION_DDOT": 0}, "tle": {"line1": "1 32460U 99025DBY 25339.65502211  .00002773  00000+0  19996-2 0  9998", "line2": "2 32460  98.0202 125.7992 0185211 144.0505 217.3283 13.89535553651555"}}, "geometry": {"type": "Point", "coordinates": [132.86307047104665, -36.33626923011479]}}, {"type": "Feature", "properties": {"norad_id": 32461, "name": "FENGYUN 1C DEB", "group": "fengyun-1c-debris", "lat": 49.86456627951724, "lon": -173.15131712900958, "alt_km": 957.1782534778895, "timestamp": "2025-12-06T22:38:43.014739+00:00", "meta": {"OBJECT_NAME": "FENGYUN 1C DEB", "OBJECT_ID": "1999-025DBZ", "EPOCH": "2025-12-06T13:47:26.922624", "MEAN_MOTION": 13.72810321, "ECCENTRICITY": 0.02320135, "INCLINATION": 98.3348, "RA_OF_ASC_NODE": 196.5399, "ARG_OF_PERICENTER": 133.6429, "MEAN_ANOMALY": 257.3138, "EPHEMERIS_TYPE": 0, "CLASSIFICATION_TYPE": "U", "NORAD_CAT_ID": 32461, "ELEMENT_SET_NO": 999, "REV_AT_EPOCH": 67210, "BSTAR": 0.001699488, "MEAN_MOTION_DOT": 1.863e-05, "MEAN_MOTION_DDOT": 0}, "tle": {"line1": "1 32461U 99025DBZ 25340.57461716  .00001863  00000+0  16995-2 0  9991", "line2": "2 32461  98.3348 196.5399 0232013 133.6429 257.3138 13.72810321672107"}}, "geometry": {"type": "Point", "coordinates": [-173.15131712900958, 49.86456627951724]}}]}